STARLINK-5082           
1 54845U 22177AB  23344.24094168  .00002983  00000+0  23581-3 0  9998
2 54845  43.0027 270.9831 0000923 248.8567 111.2177 15.02535457 53542
STARLINK-5360           
1 54846U 22177AC  23344.23539243  .00000459  00000+0  49032-4 0  9992
2 54846  43.0027 270.9407 0000970 259.9419 100.1314 15.02537983 53549
STARLINK-5061           
1 54847U 22177AD  23344.12847367  .00000385  00000+0  43556-4 0  9993
2 54847  43.0029 245.8464 0001283 267.4077  92.6619 15.02540558 53824
STARLINK-5432           
1 54848U 22177AE  23344.16817476  .00001318  00000+0  11262-3 0  9991
2 54848  43.0035 259.1481 0000780 271.5074  88.5679 15.02541538 53675
STARLINK-5434           
1 54849U 22177AF  23344.16446891 -.00000009  00000+0  14425-4 0  9993
2 54849  43.0031 271.2624 0001128 273.2374  86.8339 15.02538010 53535
STARLINK-5087           
1 54850U 22177AG  23344.76203755  .00001325  00000+0  11313-3 0  9994
2 54850  43.0026 255.8617 0001305 267.1488  92.9205 15.02535485 52785
STARLINK-5084           
1 54851U 22177AH  23344.16706495  .00001484  00000+0  12491-3 0  9992
2 54851  43.0028 259.1377 0000728 264.5128  95.5631 15.02540836 53675
STARLINK-5418           
1 54852U 22177AJ  23344.15707594  .00001529  00000+0  12823-3 0  9992
2 54852  43.0027 259.0626 0000900 246.7471 113.3276 15.02542578 53675
STARLINK-5427           
1 54853U 22177AK  23344.75871107  .00000458  00000+0  48977-4 0  9991
2 54853  43.0035 255.8377 0000599 279.5486  80.5289 15.02533816 52781
STARLINK-5419           
1 54854U 22177AL  23344.15152601  .00002661  00000+0  21194-3 0  9996
2 54854  43.0025 259.0203 0000932 244.2006 115.8740 15.02538921 53678
STARLINK-5416           
1 54855U 22177AM  23344.15485320  .00001865  00000+0  15309-3 0  9990
2 54855  43.0024 259.0449 0001284 254.9870 105.0830 15.02544458 53671
STARLINK-5086           
1 54856U 22177AN  23344.13376700  .00001240  00000+0  10684-3 0  9998
2 54856  43.0020 258.8869 0001283 267.4337  92.6358 15.02540465 53677
STARLINK-5078           
1 54857U 22177AP  23344.14486858  .00000470  00000+0  49829-4 0  9994
2 54857  43.0030 258.9746 0000884 235.5238 124.5521 15.02539224 53674
STARLINK-5407           
1 54858U 22177AQ  23344.74541062 -.00002698  00000+0 -18477-3 0  9990
2 54858  43.0040 255.7351 0001158 235.0338 125.0396 15.02522672 52780
STARLINK-5409           
1 54859U 22177AR  23344.20356833  .00006182  00000+0  47228-3 0  9998
2 54859  43.0032 258.5508 0001417 287.7733  72.2955 15.02539512 53683
STARLINK-5406           
1 54860U 22177AS  23344.19802592  .00004379  00000+0  33883-3 0  9994
2 54860  43.0027 258.5090 0001229 264.7061  95.3641 15.02558497 53686
STARLINK-5400           
1 54861U 22177AT  23344.74649027 -.00011973  00000+0 -87170-3 0  9996
2 54861  43.0020 255.7465 0000945 278.1270  81.9465 15.02581118 52781
STARLINK-5403           
1 54862U 22177AU  23344.17150647 -.00000889  00000+0 -50698-4 0  9999
2 54862  43.0028 259.1839 0001071 256.6161 103.4562 15.02547150 53679
STARLINK-5405           
1 54863U 22177AV  23344.14043009  .00000909  00000+0  82385-4 0  9999
2 54863  43.0030 258.9373 0001144 259.2648 100.8066 15.02537089 53673
STARLINK-5359           
1 54864U 22177AW  23344.12822144  .00000931  00000+0  83998-4 0  9999
2 54864  43.0027 258.8444 0000515 256.4735 103.6050 15.02538526 53676
STARLINK-5411           
1 54865U 22177AX  23344.14375768  .00000900  00000+0  81675-4 0  9993
2 54865  43.0025 258.9624 0001127 263.4878  96.5836 15.02539564 53677
STARLINK-5398           
1 54866U 22177AY  23344.11823704  .00000663  00000+0  64130-4 0  9992
2 54866  43.0037 258.7721 0001069 275.1466  84.9254 15.02537761 53677
STARLINK-5396           
1 54867U 22177AZ  23344.19691534  .00000463  00000+0  49355-4 0  9995
2 54867  43.0022 258.5004 0001205 263.9220  96.1485 15.02535762 52588
STARLINK-5379           
1 54868U 22177BA  23344.18026673  .00000437  00000+0  47436-4 0  9990
2 54868  43.0023 258.3738 0001183 266.2746  93.7961 15.02538153 53687
STARLINK-5402           
1 54869U 22177BB  23344.12377956  .00002412  00000+0  19357-3 0  9993
2 54869  43.0027 258.8126 0001285 264.0183  96.0513 15.02537821 53671
STARLINK-5401           
1 54870U 22177BC  23344.18248644  .00000907  00000+0  82154-4 0  9995
2 54870  43.0034 258.3915 0000859 276.3930  83.6815 15.02540653 53689
STARLINK-5397           
1 54871U 22177BD  23344.12488978 -.00000744  00000+0 -39968-4 0  9992
2 54871  43.0029 258.8208 0001127 271.9774  88.0939 15.02548874 53678
STARLINK-5390           
1 54872U 22177BE  23344.17472238  .00001136  00000+0  99165-4 0  9999
2 54872  43.0031 258.3612 0001010 254.3711 105.7020 15.02539895 53685
STARLINK-5091           
1 54873U 22177BF  23344.11072386 -.00055198  00000+0 -40625-2 0  9998
2 54873  43.0035 258.7133 0001178 284.0941  75.9770 15.02911128 53674
SHIYAN 10-02 (SY-10 02) 
1 54878U 22178A   23344.47632200  .00000937  00000+0  00000+0 0  9999
2 54878  63.5617  73.8806 7045908 269.2186   9.8314  2.00597882  6968
EROS C3                 
1 54880U 22179A   23344.74121847  .00011674  00000+0  31777-3 0  9992
2 54880 139.3521  93.1311 0009564 264.1442  95.8284 15.35695166 52927
STAR VIBE               
1 55009U 23001A   23344.76063936  .00004229  00000+0  22118-3 0  9994
2 55009  97.4549  40.7569 0010654 128.2943 231.9250 15.16349395 51773
MENUT                   
1 55010U 23001B   23344.75741943  .00003466  00000+0  18060-3 0  9999
2 55010  97.4598  41.0664 0011048 128.8021 231.4200 15.16596103 51782
BRO-8                   
1 55011U 23001C   23344.75555413  .00003409  00000+0  17916-3 0  9991
2 55011  97.4611  41.0154 0011628 130.8589 229.3654 15.16302299 51778
CONNECTA T1.2           
1 55012U 23001D   23344.68856203  .00003576  00000+0  18170-3 0  9993
2 55012  97.4621  41.3292 0012422 127.5286 232.7078 15.17451561 51783
LEMUR-2-PHILARI         
1 55013U 23001E   23344.72369055  .00024947  00000+0  82413-3 0  9999
2 55013  97.4537  43.7696 0008291 110.3658 249.8475 15.31341568 51978
LEMUR-2-DISCLAIMER      
1 55014U 23001F   23344.74100573  .00022244  00000+0  76510-3 0  9999
2 55014  97.4581  43.7841 0008897 116.2818 243.9338 15.30051842 51969
BIRKELAND               
1 55015U 23001G   23344.77825457  .00003281  00000+0  16132-3 0  9992
2 55015  97.4613  41.7575 0011604 121.9923 238.2440 15.18679183 51824
LEMUR-2-STEVEALBERS     
1 55017U 23001J   23344.69547862  .00015427  00000+0  55186-3 0  9993
2 55017  97.4521  43.2820 0008469 112.3392 247.8747 15.28852239 51948
KSF3-C                  
1 55018U 23001K   23344.79328652  .00010446  00000+0  44835-3 0  9994
2 55018  97.4547  42.3918 0010276 116.0542 244.1753 15.22849393 51883
KSF3-B                  
1 55019U 23001L   23344.75618455  .00004006  00000+0  17677-3 0  9993
2 55019  97.4587  42.5905 0011561 123.7124 236.5216 15.22288815 51880
FLOCK 4Y-24             
1 55020U 23001M   23344.75927179  .00006862  00000+0  30062-3 0  9996
2 55020  97.4556  42.7369 0011242 113.1466 247.0956 15.22276118 51906
FLOCK 4Y-32             
1 55021U 23001N   23344.73913126  .00006926  00000+0  30155-3 0  9996
2 55021  97.4546  42.7447 0011127 109.3373 250.9067 15.22485713 51908
FLOCK 4Y-22             
1 55022U 23001P   23344.75314587  .00006665  00000+0  29219-3 0  9994
2 55022  97.4555  42.7526 0011678 105.3411 254.9117 15.22263418 51903
FLOCK 4Y-18             
1 55023U 23001Q   23344.74111529  .00007156  00000+0  31238-3 0  9995
2 55023  97.4588  42.8982 0011126 112.1569 248.0849 15.22383490 51904
FLOCK 4Y-14             
1 55024U 23001R   23344.15787116  .00006468  00000+0  28399-3 0  9991
2 55024  97.4573  42.2568 0011507 116.2674 243.9746 15.22221614 51817
FLOCK 4Y-30             
1 55025U 23001S   23344.73529920  .00007397  00000+0  32214-3 0  9996
2 55025  97.4591  42.9206 0011369 113.0351 247.2086 15.22452967 51908
FLOCK 4Y-19             
1 55026U 23001T   23344.74344150  .00006617  00000+0  28950-3 0  9994
2 55026  97.4548  42.7296 0011829 107.0302 253.2232 15.22329740 51900
FLOCK 4Y-25             
1 55027U 23001U   23344.60855875  .00006443  00000+0  28213-3 0  9990
2 55027  97.4537  42.5714 0011518 112.3508 247.8950 15.22314127 51880
FLOCK 4Y-5              
1 55028U 23001V   23344.46334669  .00007264  00000+0  31734-3 0  9992
2 55028  97.4563  42.5379 0012057 106.6418 253.6143 15.22341847 51868
FLOCK 4Y-10             
1 55029U 23001W   23344.73123514  .00007291  00000+0  31813-3 0  9996
2 55029  97.4576  42.8987 0011447 109.1000 251.1476 15.22389950 51902
FLOCK 4Y-29             
1 55030U 23001X   23344.72916676  .00011083  00000+0  47630-3 0  9994
2 55030  97.4543  42.7255 0011661 105.4754 254.7771 15.22776558 51909
FLOCK 4Y-17             
1 55031U 23001Y   23344.47659782  .00006524  00000+0  28532-3 0  9993
2 55031  97.4599  42.6589 0011330 112.9920 247.2513 15.22356407 51864
FLOCK 4Y-7              
1 55032U 23001Z   23344.71782805  .00007703  00000+0  33616-3 0  9993
2 55032  97.4552  42.7880 0012003 104.8291 255.4276 15.22361955 51904
FLOCK 4Y-28             
1 55033U 23001AA  23344.74025253  .00008912  00000+0  34225-3 0  9994
2 55033  97.4520  43.6933 0009917 105.9981 254.2351 15.26639206 51976
LYNK TOWER 4            
1 55034U 23001AB  23344.70503658  .00003336  00000+0  17847-3 0  9997
2 55034  97.4577  40.7929 0013110 114.7215 245.5384 15.15674638 51762
FLOCK 4Y-3              
1 55035U 23001AC  23344.71196537  .00007460  00000+0  32480-3 0  9995
2 55035  97.4549  42.7695 0014428 111.4288 248.8489 15.22422245 51902
UMBRA-05                
1 55036U 23001AD  23343.62174290  .00013299  00000+0  76816-3 0  9995
2 55036  97.4571  40.3785 0011890 357.8147   2.3030 15.12376006 51640
LEMUR-2-EMMACULATE      
1 55037U 23001AE  23344.71137203  .00031873  00000+0  91490-3 0  9993
2 55037  97.4588  45.2559 0011224  99.9325 260.3186 15.35733374 52059
